OBJECT_NAME,OBJECT_ID,EPOCH,MEAN_MOTION,ECCENTRICITY,INCLINATION,RA_OF_ASC_NODE,ARG_OF_PERICENTER,MEAN_ANOMALY,EPHEMERIS_TYPE,CLASSIFICATION_TYPE,NORAD_CAT_ID,ELEMENT_SET_NO,REV_AT_EPOCH,BSTAR,MEAN_MOTION_DOT,MEAN_MOTION_DDOT
FLOCK 4BE-7,2024-149P,2026-06-27T05:18:54.266688,15.40713830,.0002952,97.3763,261.3776,197.1295,162.9852,0,U,60481,999,10379,.53971E-3,.21998E-3,0
TOMORROW-S2,2024-149T,2026-06-27T05:17:11.747040,15.32891980,.0002108,97.3822,259.1596,201.7577,158.3576,0,U,60485,999,10362,.26824E-3,.8444E-4,0
FLOCK 4BE-36,2024-149U,2026-06-27T04:04:59.055744,15.43016774,.0003293,97.3750,262.7191,207.8232,152.2840,0,U,60486,999,10389,.38173E-3,.16762E-3,0
FLOCK 4BE-25,2024-149V,2026-06-27T03:59:18.567168,15.39085913,.0002315,97.3803,261.3849,184.6848,175.4376,0,U,60487,999,10377,.41767E-3,.16105E-3,0
FLOCK 4BE-31,2024-149W,2026-06-27T04:36:28.202112,15.44470965,.0002365,97.3802,263.6282,198.1231,161.9933,0,U,60488,999,10392,.50372E-3,.23278E-3,0
FLOCK 4BE-20,2024-149X,2026-06-27T04:47:37.731264,15.38309813,.0003435,97.3702,260.2723,205.5586,154.5490,0,U,60489,999,10375,.3956E-3,.14868E-3,0
FLOCK 4BE-23,2024-149Y,2026-06-27T04:37:12.188352,15.37914663,.0002945,97.3787,260.6470,209.5231,150.5848,0,U,60490,999,10373,.39506E-3,.14657E-3,0
FLOCK 4BE-17,2024-149AA,2026-06-27T05:28:05.617056,15.40064915,.0003039,97.3777,261.6773,195.2965,164.8189,0,U,60492,999,10380,.41955E-3,.16709E-3,0
NUSAT-50 (NANCY ROMAN),2024-149AB,2026-06-27T04:12:28.418688,15.30023689,.0004274,97.3791,259.3618,145.8590,214.2926,0,U,60493,999,10365,.35822E-3,.10341E-3,0
FLOCK 4BE-22,2024-149AC,2026-06-27T04:48:30.970944,15.41457919,.0003208,97.3739,261.8572,209.1015,151.0054,0,U,60494,999,10384,.40031E-3,.1669E-3,0
FLOCK 4BE-34,2024-149AD,2026-06-27T05:13:20.374752,15.41440506,.0003066,97.3787,262.7035,217.2158,142.8877,0,U,60495,999,10387,.40377E-3,.16826E-3,0
TYCHE,2024-149AE,2026-06-27T04:02:37.120416,15.25833154,.0001661,97.3758,255.8516,220.6324,139.4791,0,U,60496,999,10342,.18916E-3,.4767E-4,0
FLOCK 4BE-32,2024-149AF,2026-06-27T04:18:33.760224,15.42483212,.0003311,97.3727,262.2161,213.2429,146.8611,0,U,60497,999,10387,.4425E-3,.19106E-3,0
NUSAT-48 (HENRIETTA LEAVITT),2024-149AG,2026-06-27T05:30:13.401792,15.30027368,.0002931,97.3924,259.6765,222.9994,137.1017,0,U,60498,999,10367,.34932E-3,.10081E-3,0
FLOCK 4BE-30,2024-149AH,2026-06-27T05:08:11.876640,15.59109665,.0005532,97.3778,264.0862,223.5848,136.4972,0,U,60499,999,10333,.20188E-2,.160514E-2,0
NUSAT-49 (KLARA DAN VON NEUMANN),2024-149AJ,2026-06-27T04:57:52.943328,15.30103731,.000078,97.3786,259.4252,236.6477,123.4689,0,U,60500,999,10366,.3167E-3,.9153E-4,0
FLOCK 4BE-11,2024-149AK,2026-06-27T04:03:11.223360,15.43299421,.0003483,97.3705,262.4449,214.1705,145.9319,0,U,60501,999,10389,.44112E-3,.19577E-3,0
YAM-7,2024-149AN,2026-06-27T04:22:17.120640,15.31949601,.0001974,97.3792,258.3916,242.1869,117.9173,0,U,60504,999,10358,.25204E-3,.7698E-4,0
FLOCK 4BE-24,2024-149AP,2026-06-27T05:16:08.915232,15.43434845,.0003464,97.3721,262.7561,227.7238,132.3716,0,U,60505,999,10391,.47667E-3,.21262E-3,0
LUR-1,2024-149AQ,2026-06-27T04:24:29.143296,15.30229555,.0002548,97.3742,256.9397,264.2158,95.8792,0,U,60506,999,10350,.25207E-3,.7297E-4,0
TANAGER-1,2024-149AR,2026-06-27T04:47:38.336064,15.44777787,.0002984,97.2410,272.4273,270.3424,89.7483,0,U,60507,999,10458,.99285E-5,.379E-5,0
EAGLEEYE,2024-149AS,2026-06-27T03:58:31.326240,15.72812055,.0004889,97.3722,272.0662,215.0315,145.0628,0,U,60508,999,10450,.88419E-3,.120772E-2,0
FLOCK 4BE-29,2024-149AT,2026-06-27T05:21:53.237376,15.44461236,.0001928,97.3817,264.2488,228.2696,131.8388,0,U,60509,999,10396,.38061E-3,.17548E-3,0
TRANSPORTER-11 OBJECT AU,2024-149AU,2026-06-27T04:36:42.092640,15.40492400,.0002624,97.3736,261.9933,234.5281,125.5721,0,U,60510,999,10385,.39217E-3,.15832E-3,0
FLOCK 4BE-2,2024-149AV,2026-06-27T04:10:32.378304,15.53803371,.0004361,97.3842,265.7597,219.1791,140.9147,0,U,60511,999,10405,.9876E-3,.63724E-3,0
FLOCK 4BE-13,2024-149AW,2026-06-27T05:08:37.928832,15.42150206,.000361,97.3728,262.7309,214.9822,145.1189,0,U,60512,999,10391,.35301E-3,.15049E-3,0
FLOCK 4BE-27,2024-149AX,2026-06-27T04:06:52.970688,15.34617110,.0002414,97.3831,260.0276,257.0520,103.0454,0,U,60513,999,10367,.31012E-3,.10326E-3,0
FLOCK 4BE-9,2024-149AY,2026-06-27T05:17:30.232320,15.41083872,.0001968,97.3798,262.5904,231.5699,128.5371,0,U,60514,999,10386,.4065E-3,.16739E-3,0
