FLOCK 4BE-7             
1 60481U 24149P   26178.22146142  .00021998  00000+0  53971-3 0  9991
2 60481  97.3763 261.3776 0002952 197.1295 162.9852 15.40713830103795
TOMORROW-S2             
1 60485U 24149T   26178.22027485  .00008444  00000+0  26824-3 0  9991
2 60485  97.3822 259.1596 0002108 201.7577 158.3576 15.32891980103626
FLOCK 4BE-36            
1 60486U 24149U   26178.17012796  .00016762  00000+0  38173-3 0  9997
2 60486  97.3750 262.7191 0003293 207.8232 152.2840 15.43016774103897
FLOCK 4BE-25            
1 60487U 24149V   26178.16618712  .00016105  00000+0  41767-3 0  9991
2 60487  97.3803 261.3849 0002315 184.6848 175.4376 15.39085913103775
FLOCK 4BE-31            
1 60488U 24149W   26178.19199308  .00023278  00000+0  50372-3 0  9991
2 60488  97.3802 263.6282 0002365 198.1231 161.9933 15.44470965103929
FLOCK 4BE-20            
1 60489U 24149X   26178.19974226  .00014868  00000+0  39560-3 0  9993
2 60489  97.3702 260.2723 0003435 205.5586 154.5490 15.38309813103750
FLOCK 4BE-23            
1 60490U 24149Y   26178.19250218  .00014657  00000+0  39506-3 0  9999
2 60490  97.3787 260.6470 0002945 209.5231 150.5848 15.37914663103739
FLOCK 4BE-17            
1 60492U 24149AA  26178.22784279  .00016709  00000+0  41955-3 0  9995
2 60492  97.3777 261.6773 0003039 195.2965 164.8189 15.40064915103801
NUSAT-50 (NANCY ROMAN)  
1 60493U 24149AB  26178.17532892  .00010341  00000+0  35822-3 0  9994
2 60493  97.3791 259.3618 0004274 145.8590 214.2926 15.30023689103651
FLOCK 4BE-22            
1 60494U 24149AC  26178.20035846  .00016690  00000+0  40031-3 0  9997
2 60494  97.3739 261.8572 0003208 209.1015 151.0054 15.41457919103843
FLOCK 4BE-34            
1 60495U 24149AD  26178.21759693  .00016826  00000+0  40377-3 0  9996
2 60495  97.3787 262.7035 0003066 217.2158 142.8877 15.41440506103879
TYCHE                   
1 60496U 24149AE  26178.16848519  .00004767  00000+0  18916-3 0  9992
2 60496  97.3758 255.8516 0001661 220.6324 139.4791 15.25833154103422
FLOCK 4BE-32            
1 60497U 24149AF  26178.17955741  .00019106  00000+0  44250-3 0  9993
2 60497  97.3727 262.2161 0003311 213.2429 146.8611 15.42483212103872
NUSAT-48 (HENRIETTA LE*)
1 60498U 24149AG  26178.22932178  .00010081  00000+0  34932-3 0  9998
2 60498  97.3924 259.6765 0002931 222.9994 137.1017 15.30027368103677
FLOCK 4BE-30            
1 60499U 24149AH  26178.21402635  .00160514  00000+0  20188-2 0  9992
2 60499  97.3778 264.0862 0005532 223.5848 136.4972 15.59109665103335
NUSAT-49 (KLARA DAN VO*)
1 60500U 24149AJ  26178.20686277  .00009153  00000+0  31670-3 0  9990
2 60500  97.3786 259.4252 0000780 236.6477 123.4689 15.30103731103665
FLOCK 4BE-11            
1 60501U 24149AK  26178.16887990  .00019577  00000+0  44112-3 0  9997
2 60501  97.3705 262.4449 0003483 214.1705 145.9319 15.43299421103897
YAM-7                   
1 60504U 24149AN  26178.18214260  .00007698  00000+0  25204-3 0  9998
2 60504  97.3792 258.3916 0001974 242.1869 117.9173 15.31949601103586
FLOCK 4BE-24            
1 60505U 24149AP  26178.21954763  .00021262  00000+0  47667-3 0  9992
2 60505  97.3721 262.7561 0003464 227.7238 132.3716 15.43434845103912
LUR-1                   
1 60506U 24149AQ  26178.18367064  .00007297  00000+0  25207-3 0  9999
2 60506  97.3742 256.9397 0002548 264.2158  95.8792 15.30229555103505
TANAGER-1               
1 60507U 24149AR  26178.19974926  .00000379  00000+0  99285-5 0  9995
2 60507  97.2410 272.4273 0002984 270.3424  89.7483 15.44777787104589
EAGLEEYE                
1 60508U 24149AS  26178.16564035  .00120772  00000+0  88419-3 0  9994
2 60508  97.3722 272.0662 0004889 215.0315 145.0628 15.72812055104504
FLOCK 4BE-29            
1 60509U 24149AT  26178.22353284  .00017548  00000+0  38061-3 0  9998
2 60509  97.3817 264.2488 0001928 228.2696 131.8388 15.44461236103963
TRANSPORTER-11 OBJECT AU
1 60510U 24149AU  26178.19215385  .00015832  00000+0  39217-3 0  9993
2 60510  97.3736 261.9933 0002624 234.5281 125.5721 15.40492400103850
FLOCK 4BE-2             
1 60511U 24149AV  26178.17398586  .00063724  00000+0  98760-3 0  9998
2 60511  97.3842 265.7597 0004361 219.1791 140.9147 15.53803371104055
FLOCK 4BE-13            
1 60512U 24149AW  26178.21432788  .00015049  00000+0  35301-3 0  9996
2 60512  97.3728 262.7309 0003610 214.9822 145.1189 15.42150206103918
FLOCK 4BE-27            
1 60513U 24149AX  26178.17144642  .00010326  00000+0  31012-3 0  9999
2 60513  97.3831 260.0276 0002414 257.0520 103.0454 15.34617110103676
FLOCK 4BE-9             
1 60514U 24149AY  26178.22048880  .00016739  00000+0  40650-3 0  9995
2 60514  97.3798 262.5904 0001968 231.5699 128.5371 15.41083872103862
